OBJECT_NAME,OBJECT_ID,EPOCH,MEAN_MOTION,ECCENTRICITY,INCLINATION,RA_OF_ASC_NODE,ARG_OF_PERICENTER,MEAN_ANOMALY,EPHEMERIS_TYPE,CLASSIFICATION_TYPE,NORAD_CAT_ID,ELEMENT_SET_NO,REV_AT_EPOCH,BSTAR,MEAN_MOTION_DOT,MEAN_MOTION_DDOT
DMSP 5D-3 F16 (USA 172),2003-048A,2026-07-01T14:29:33.802080,14.14484220,.00081806,98.9886,206.5273,104.3961,2.6012,0,U,28054,999,17152,.19617793E-4,-.8E-7,0
METEOSAT-9 (MSG-2),2005-049B,2026-06-30T17:43:00.765984,1.00279300,.00018275,9.3903,54.0333,1.4312,174.9175,0,U,28912,999,713,0,.127E-5,0
DMSP 5D-3 F17 (USA 191),2006-050A,2026-07-01T14:16:29.921664,14.14994806,.00105473,98.7380,188.8701,21.3205,338.8406,0,U,29522,999,1446,.27372388E-4,.1E-6,0
FENGYUN 3A,2008-026A,2026-07-01T10:13:23.085696,14.19574022,.00098827,98.6885,122.9929,87.0903,273.1404,0,U,32958,999,93742,.56164126E-4,.75E-6,0
GOES 14,2009-033A,2026-07-01T14:33:15.932160,1.00106023,.00022588,1.7253,82.8793,24.8132,163.6550,0,U,35491,999,673,0,-.327E-5,0
DMSP 5D-3 F18 (USA 210),2009-057A,2026-07-01T15:18:27.440640,14.14904842,.00104331,98.9044,163.3759,204.6381,155.4295,0,U,35951,999,86163,.15564626E-3,.256E-5,0
EWS-G2 (GOES 15),2010-008A,2026-07-01T12:37:12.838656,1.00268319,.00053975,1.3150,82.6551,45.4902,44.2254,0,U,36411,999,5978,0,.31E-6,0
COMS 1,2010-032A,2026-06-30T22:43:05.955744,0.99168514,.00118602,4.8386,75.1955,13.5621,189.6530,0,U,36744,999,5122,0,-.48E-6,0
FENGYUN 3B,2010-059A,2026-07-01T14:20:04.081344,14.14844296,.00226592,98.9613,228.6726,143.4519,320.1286,0,U,37214,999,80946,.16602686E-4,-.13E-6,0
SUOMI NPP,2011-061A,2026-07-01T13:53:20.992416,14.19520260,.00007407,98.7955,123.3566,316.6656,43.4462,0,U,37849,999,76048,.57177584E-4,.76E-6,0
METEOSAT-10 (MSG-3),2012-035B,2026-07-01T00:20:29.880672,1.00269335,.00016742,4.7026,60.9544,14.0096,209.3719,0,U,38552,999,5099,0,.1E-7,0
METOP-B,2012-049A,2026-07-01T14:52:28.282656,14.21443292,.00013591,98.6497,233.8306,332.8432,27.2674,0,U,38771,999,71531,.74918196E-4,.12E-5,0
INSAT-3D,2013-038B,2026-07-01T12:56:04.953408,1.00269455,.00011065,1.9613,82.3723,11.9133,148.8290,0,U,39216,999,4722,0,-.33E-5,0
FENGYUN 3C,2013-052A,2026-07-01T14:27:39.146688,14.15758209,.00143808,98.4987,155.8159,346.8435,13.2362,0,U,39260,999,66060,.59380643E-4,.75E-6,0
METEOR-M 2,2014-037A,2026-07-01T13:48:46.642176,14.21464495,.00060434,98.5117,157.8047,7.5055,352.6213,0,U,40069,999,62136,-.32156806E-4,-.112E-5,0
HIMAWARI-8,2014-060A,2026-07-01T14:29:16.934208,1.00272431,.00010953,0.0175,18.3900,85.0941,174.1684,0,U,40267,999,4290,0,-.265E-5,0
FENGYUN 2G,2014-090A,2026-07-01T14:30:10.029600,1.00267159,.00035946,5.6740,72.6457,150.4054,13.7296,0,U,40367,999,4214,0,-.294E-5,0
METEOSAT-11 (MSG-4),2015-034A,2026-07-01T14:04:25.412736,1.00267589,.00022372,3.2365,71.0205,348.5856,80.4770,0,U,40732,999,736,0,.7E-6,0
ELEKTRO-L 2,2015-074A,2026-07-01T10:32:17.133216,1.00271066,.00004939,6.7285,70.3494,266.0221,86.6343,0,U,41105,999,3864,0,-.112E-5,0
SENTINEL-3A,2016-011A,2026-07-01T14:14:12.138720,14.26736563,.00014349,98.6244,249.7696,95.1445,264.9899,0,U,41335,999,54011,.64324659E-4,.112E-5,0
INSAT-3DR,2016-054A,2026-07-01T12:40:12.550656,1.00272357,.00100833,0.1402,85.9831,186.2984,271.3316,0,U,41752,999,3596,0,-.67E-6,0
HIMAWARI-9,2016-064A,2026-07-01T14:29:16.884096,1.00268516,.00014608,0.0334,266.0642,221.7034,149.9462,0,U,41836,999,3535,0,-.265E-5,0
GOES 16,2016-071A,2026-07-01T13:25:56.529984,1.00272069,.00005869,0.3750,85.5261,26.6929,264.1891,0,U,41866,999,3524,0,-.81E-6,0
FENGYUN 4A,2016-077A,2026-07-01T14:37:01.870752,1.00276651,.00079205,2.3578,80.1315,157.9896,24.5148,0,U,41882,999,3507,0,-.348E-5,0
CYGFM05,2016-078A,2026-07-01T08:23:35.501280,15.57267856,.00081655,34.9552,166.7634,275.0442,84.9350,0,U,41884,999,53096,.4006345E-3,.30302E-3,0
CYGFM04,2016-078B,2026-07-01T05:04:49.547712,15.62289231,.0006779,34.9315,134.6520,309.1749,50.8375,0,U,41885,999,53119,.4285E-3,.39323E-3,0
CYGFM02,2016-078C,2026-07-01T05:58:10.970976,15.65418514,.00076855,34.9396,128.5199,312.1896,47.8178,0,U,41886,999,53137,.43610727E-3,.45356E-3,0
CYGFM01,2016-078D,2026-07-01T07:58:18.699168,15.57965163,.00080118,34.9383,167.8211,269.9664,90.0142,0,U,41887,999,53091,.4040046E-3,.31375E-3,0
CYGFM08,2016-078E,2026-07-01T07:56:36.535488,15.60737829,.00088583,34.9420,147.0291,298.5581,61.4253,0,U,41888,999,53118,.42168042E-3,.36446E-3,0
CYGFM07,2016-078G,2026-07-01T06:56:30.290208,15.60840244,.00071774,34.9438,135.6368,310.2084,49.8013,0,U,41890,999,53120,.42768272E-3,.3709E-3,0
CYGFM03,2016-078H,2026-07-01T06:14:51.349920,15.60827645,.00070665,34.9393,137.7623,297.5980,62.4027,0,U,41891,999,53117,.41953085E-3,.3636E-3,0
