DMSP 5D-3 F16 (USA 172) 
1 28054U 03048A   26182.60386345 -.00000008  00000+0  19618-4 0  9995
2 28054  98.9886 206.5273 0008180 104.3961   2.6012 14.14484220171522
METEOSAT-9 (MSG-2)      
1 28912U 05049B   26181.73820331  .00000127  00000+0  00000+0 0  9993
2 28912   9.3903  54.0333 0001827   1.4312 174.9175  1.00279300  7132
DMSP 5D-3 F17 (USA 191) 
1 29522U 06050A   26182.59479076  .00000010  00000+0  27372-4 0  9992
2 29522  98.7380 188.8701 0010547  21.3205 338.8406 14.14994806 14463
FENGYUN 3A              
1 32958U 08026A   26182.42596164  .00000075  00000+0  56164-4 0  9996
2 32958  98.6885 122.9929 0009882  87.0903 273.1404 14.19574022937422
GOES 14                 
1 35491U 09033A   26182.60643440 -.00000327  00000+0  00000+0 0  9994
2 35491   1.7253  82.8793 0002258  24.8132 163.6550  1.00106023  6731
DMSP 5D-3 F18 (USA 210) 
1 35951U 09057A   26182.63781760  .00000256  00000+0  15565-3 0  9998
2 35951  98.9044 163.3759 0010433 204.6381 155.4295 14.14904842861630
EWS-G2 (GOES 15)        
1 36411U 10008A   26182.52584304  .00000031  00000+0  00000+0 0  9996
2 36411   1.3150  82.6551 0005397  45.4902  44.2254  1.00268319 59782
COMS 1                  
1 36744U 10032A   26181.94659671 -.00000048  00000+0  00000+0 0  9996
2 36744   4.8386  75.1955 0011860  13.5621 189.6530  0.99168514 51226
FENGYUN 3B              
1 37214U 10059A   26182.59726946 -.00000013  00000+0  16603-4 0  9993
2 37214  98.9613 228.6726 0022659 143.4519 320.1286 14.14844296809461
SUOMI NPP               
1 37849U 11061A   26182.57871519  .00000076  00000+0  57178-4 0  9996
2 37849  98.7955 123.3566 0000740 316.6656  43.4462 14.19520260760484
METEOSAT-10 (MSG-3)     
1 38552U 12035B   26182.01423473  .00000001  00000+0  00000+0 0  9996
2 38552   4.7026  60.9544 0001674  14.0096 209.3719  1.00269335 50993
METOP-B                 
1 38771U 12049A   26182.61977179  .00000120  00000+0  74918-4 0  9993
2 38771  98.6497 233.8306 0001359 332.8432  27.2674 14.21443292715316
INSAT-3D                
1 39216U 13038B   26182.53894622 -.00000330  00000+0  00000+0 0  9999
2 39216   1.9613  82.3723 0001106  11.9133 148.8290  1.00269455 47223
FENGYUN 3C              
1 39260U 13052A   26182.60253642  .00000075  00000+0  59381-4 0  9999
2 39260  98.4987 155.8159 0014380 346.8435  13.2362 14.15758209660607
METEOR-M 2              
1 40069U 14037A   26182.57553984 -.00000112  00000+0 -32157-4 0  9996
2 40069  98.5117 157.8047 0006043   7.5055 352.6213 14.21464495621369
HIMAWARI-8              
1 40267U 14060A   26182.60366822 -.00000265  00000+0  00000+0 0  9994
2 40267   0.0175  18.3900 0001095  85.0941 174.1684  1.00272431 42903
FENGYUN 2G              
1 40367U 14090A   26182.60428275 -.00000294  00000+0  00000+0 0  9991
2 40367   5.6740  72.6457 0003594 150.4054  13.7296  1.00267159 42145
METEOSAT-11 (MSG-4)     
1 40732U 15034A   26182.58640524  .00000070  00000+0  00000+0 0  9997
2 40732   3.2365  71.0205 0002237 348.5856  80.4770  1.00267589  7365
ELEKTRO-L 2             
1 41105U 15074A   26182.43908719 -.00000112  00000+0  00000+0 0  9991
2 41105   6.7285  70.3494 0000493 266.0221  86.6343  1.00271066 38647
SENTINEL-3A             
1 41335U 16011A   26182.59319605  .00000112  00000+0  64325-4 0  9999
2 41335  98.6244 249.7696 0001434  95.1445 264.9899 14.26736563540115
INSAT-3DR               
1 41752U 16054A   26182.52792304 -.00000067  00000+0  00000+0 0  9998
2 41752   0.1402  85.9831 0010083 186.2984 271.3316  1.00272357 35965
HIMAWARI-9              
1 41836U 16064A   26182.60366764 -.00000265  00000+0  00000+0 0  9998
2 41836   0.0334 266.0642 0001460 221.7034 149.9462  1.00268516 35350
GOES 16                 
1 41866U 16071A   26182.55968206 -.00000081  00000+0  00000+0 0  9998
2 41866   0.3750  85.5261 0000586  26.6929 264.1891  1.00272069 35244
FENGYUN 4A              
1 41882U 16077A   26182.60904943 -.00000348  00000+0  00000+0 0  9992
2 41882   2.3578  80.1315 0007920 157.9896  24.5148  1.00276651 35078
CYGFM05                 
1 41884U 16078A   26182.34971645  .00030302  00000+0  40063-3 0  9998
2 41884  34.9552 166.7634 0008165 275.0442  84.9350 15.57267856530966
CYGFM04                 
1 41885U 16078B   26182.21168458  .00039323  00000+0  42850-3 0  9993
2 41885  34.9315 134.6520 0006779 309.1749  50.8375 15.62289231531192
CYGFM02                 
1 41886U 16078C   26182.24873809  .00045356  00000+0  43611-3 0  9999
2 41886  34.9396 128.5199 0007685 312.1896  47.8178 15.65418514531378
CYGFM01                 
1 41887U 16078D   26182.33216087  .00031375  00000+0  40400-3 0  9998
2 41887  34.9383 167.8211 0008011 269.9664  90.0142 15.57965163530910
CYGFM08                 
1 41888U 16078E   26182.33097842  .00036446  00000+0  42168-3 0  9992
2 41888  34.9420 147.0291 0008858 298.5581  61.4253 15.60737829531181
CYGFM07                 
1 41890U 16078G   26182.28923947  .00037090  00000+0  42768-3 0  9995
2 41890  34.9438 135.6368 0007177 310.2084  49.8013 15.60840244531207
CYGFM03                 
1 41891U 16078H   26182.26031655  .00036360  00000+0  41953-3 0  9994
2 41891  34.9393 137.7623 0007066 297.5980  62.4027 15.60827645531176
